ALOS (DAICHI)           
1 28931U 06002A   25351.73419158  .00001110  00000+0  19545-3 0  9994
2 28931  98.1098 303.1864 0001361 113.5739 246.5610 14.69501788 61443
H-2A R/B                
1 28932U 06002B   26002.32924344  .00016517  00000+0  85351-3 0  9997
2 28932  98.2324 143.7679 0054742 106.9869 253.7370 15.15049547 84383
RESURS-DK 1             
1 29228U 06021A   26002.20358459  .00005317  00000+0  31226-3 0  9990
2 29228  69.9348  48.9471 0006992 242.0551 117.9908 15.12301289 77474
CZ-4B R/B               
1 29507U 06046C   26002.09901509  .00008479  00000+0  43673-3 0  9995
2 29507  97.5708  47.1824 0034876 136.4133 223.9865 15.16112704 49956
CZ-2C R/B               
1 31114U 07010B   26002.22035429  .00000326  00000+0  16857-3 0  9995
2 31114  98.3975 118.8406 0059793 126.9605 233.7069 14.20219894970289
COSMO-SKYMED 1          
1 31598U 07023A   26002.32437848  .00006978  00000+0  62796-3 0  9999
2 31598  97.8826 192.8605 0001245  88.2415 271.8948 14.95947353  4989
COSMOS 2428             
1 31792U 07029A   26002.19888231  .00000365  00000+0  22159-3 0  9995
2 31792  70.9379 342.9232 0004852 355.0388   5.0684 14.12900646954706
SL-16 R/B               
1 31793U 07029B   26002.32759209  .00000204  00000+0  13071-3 0  9998
2 31793  70.9774 311.8800 0002059 270.6685 204.8885 14.14824718955981
KORONAS-FOTON           
1 33504U 09003A   26002.00895336  .00016165  00000+0  38186-3 0  9998
2 33504  82.4307 345.0952 0012743  45.8160 314.4131 15.41628748935460
CZ-2C R/B               
1 37731U 11030B   26002.28316554  .00002454  00000+0  31658-3 0  9990
2 37731  97.8435 320.9389 0052046 205.0663 291.6390 14.80975369780267
H-2A R/B                
1 38341U 12025E   26001.99324187  .00004591  00000+0  42196-3 0  9994
2 38341  98.4625 323.7896 0045020 169.0713 191.1494 14.94597263738255
SHIJIAN-16 (SJ-16)      
1 39358U 13057A   26002.32184272  .00004621  00000+0  45619-3 0  9993
2 39358  74.9736 310.7075 0017894 272.2442  87.6697 14.92078033661600
