CCSDS_OMM_VERS = 2.0
CREATION_DATE  = 
ORIGINATOR     = 

OBJECT_NAME    = ALOS (DAICHI)
OBJECT_ID      = 2006-002A
CENTER_NAME    = EARTH
REF_FRAME      = TEME
TIME_SYSTEM    = UTC
MEAN_ELEMENT_THEORY = SGP/SGP4

EPOCH          = 2025-12-17T17:37:14.152512
MEAN_MOTION    = 14.69501788
ECCENTRICITY   = .00013612
INCLINATION    = 98.1098
RA_OF_ASC_NODE = 303.1864
ARG_OF_PERICENTER = 113.5739
MEAN_ANOMALY   = 246.5610

EPHEMERIS_TYPE = 0
CLASSIFICATION_TYPE = U
NORAD_CAT_ID   = 28931
ELEMENT_SET_NO = 999
REV_AT_EPOCH   = 6144
BSTAR          = .19545051E-3
MEAN_MOTION_DOT = .111E-4
MEAN_MOTION_DDOT = 0

CCSDS_OMM_VERS = 2.0
CREATION_DATE  = 
ORIGINATOR     = 

OBJECT_NAME    = H-2A R/B
OBJECT_ID      = 2006-002B
CENTER_NAME    = EARTH
REF_FRAME      = TEME
TIME_SYSTEM    = UTC
MEAN_ELEMENT_THEORY = SGP/SGP4

EPOCH          = 2026-01-02T07:54:06.633216
MEAN_MOTION    = 15.15049547
ECCENTRICITY   = .00547422
INCLINATION    = 98.2324
RA_OF_ASC_NODE = 143.7679
ARG_OF_PERICENTER = 106.9869
MEAN_ANOMALY   = 253.7370

EPHEMERIS_TYPE = 0
CLASSIFICATION_TYPE = U
NORAD_CAT_ID   = 28932
ELEMENT_SET_NO = 999
REV_AT_EPOCH   = 8438
BSTAR          = .85351292E-3
MEAN_MOTION_DOT = .16517E-3
MEAN_MOTION_DDOT = 0

CCSDS_OMM_VERS = 2.0
CREATION_DATE  = 
ORIGINATOR     = 

OBJECT_NAME    = RESURS-DK 1
OBJECT_ID      = 2006-021A
CENTER_NAME    = EARTH
REF_FRAME      = TEME
TIME_SYSTEM    = UTC
MEAN_ELEMENT_THEORY = SGP/SGP4

EPOCH          = 2026-01-02T04:53:09.708576
MEAN_MOTION    = 15.12301289
ECCENTRICITY   = .00069923
INCLINATION    = 69.9348
RA_OF_ASC_NODE = 48.9471
ARG_OF_PERICENTER = 242.0551
MEAN_ANOMALY   = 117.9908

EPHEMERIS_TYPE = 0
CLASSIFICATION_TYPE = U
NORAD_CAT_ID   = 29228
ELEMENT_SET_NO = 999
REV_AT_EPOCH   = 7747
BSTAR          = .31225999E-3
MEAN_MOTION_DOT = .5317E-4
MEAN_MOTION_DDOT = 0

CCSDS_OMM_VERS = 2.0
CREATION_DATE  = 
ORIGINATOR     = 

OBJECT_NAME    = CZ-4B R/B
OBJECT_ID      = 2006-046C
CENTER_NAME    = EARTH
REF_FRAME      = TEME
TIME_SYSTEM    = UTC
MEAN_ELEMENT_THEORY = SGP/SGP4

EPOCH          = 2026-01-02T02:22:34.903776
MEAN_MOTION    = 15.16112704
ECCENTRICITY   = .00348768
INCLINATION    = 97.5708
RA_OF_ASC_NODE = 47.1824
ARG_OF_PERICENTER = 136.4133
MEAN_ANOMALY   = 223.9865

EPHEMERIS_TYPE = 0
CLASSIFICATION_TYPE = U
NORAD_CAT_ID   = 29507
ELEMENT_SET_NO = 999
REV_AT_EPOCH   = 4995
BSTAR          = .4367287E-3
MEAN_MOTION_DOT = .8479E-4
MEAN_MOTION_DDOT = 0

CCSDS_OMM_VERS = 2.0
CREATION_DATE  = 
ORIGINATOR     = 

OBJECT_NAME    = CZ-2C R/B
OBJECT_ID      = 2007-010B
CENTER_NAME    = EARTH
REF_FRAME      = TEME
TIME_SYSTEM    = UTC
MEAN_ELEMENT_THEORY = SGP/SGP4

EPOCH          = 2026-01-02T05:17:18.610656
MEAN_MOTION    = 14.20219894
ECCENTRICITY   = .00597936
INCLINATION    = 98.3975
RA_OF_ASC_NODE = 118.8406
ARG_OF_PERICENTER = 126.9605
MEAN_ANOMALY   = 233.7069

EPHEMERIS_TYPE = 0
CLASSIFICATION_TYPE = U
NORAD_CAT_ID   = 31114
ELEMENT_SET_NO = 999
REV_AT_EPOCH   = 97028
BSTAR          = .16857208E-3
MEAN_MOTION_DOT = .326E-5
MEAN_MOTION_DDOT = 0

CCSDS_OMM_VERS = 2.0
CREATION_DATE  = 
ORIGINATOR     = 

OBJECT_NAME    = COSMO-SKYMED 1
OBJECT_ID      = 2007-023A
CENTER_NAME    = EARTH
REF_FRAME      = TEME
TIME_SYSTEM    = UTC
MEAN_ELEMENT_THEORY = SGP/SGP4

EPOCH          = 2026-01-02T07:47:06.300672
MEAN_MOTION    = 14.95947353
ECCENTRICITY   = .00012454
INCLINATION    = 97.8826
RA_OF_ASC_NODE = 192.8605
ARG_OF_PERICENTER = 88.2415
MEAN_ANOMALY   = 271.8948

EPHEMERIS_TYPE = 0
CLASSIFICATION_TYPE = U
NORAD_CAT_ID   = 31598
ELEMENT_SET_NO = 999
REV_AT_EPOCH   = 498
BSTAR          = .62795989E-3
MEAN_MOTION_DOT = .6978E-4
MEAN_MOTION_DDOT = 0

CCSDS_OMM_VERS = 2.0
CREATION_DATE  = 
ORIGINATOR     = 

OBJECT_NAME    = COSMOS 2428
OBJECT_ID      = 2007-029A
CENTER_NAME    = EARTH
REF_FRAME      = TEME
TIME_SYSTEM    = UTC
MEAN_ELEMENT_THEORY = SGP/SGP4

EPOCH          = 2026-01-02T04:46:23.431584
MEAN_MOTION    = 14.12900646
ECCENTRICITY   = .00048524
INCLINATION    = 70.9379
RA_OF_ASC_NODE = 342.9232
ARG_OF_PERICENTER = 355.0388
MEAN_ANOMALY   = 5.0684

EPHEMERIS_TYPE = 0
CLASSIFICATION_TYPE = U
NORAD_CAT_ID   = 31792
ELEMENT_SET_NO = 999
REV_AT_EPOCH   = 95470
BSTAR          = .2215875E-3
MEAN_MOTION_DOT = .365E-5
MEAN_MOTION_DDOT = 0

CCSDS_OMM_VERS = 2.0
CREATION_DATE  = 
ORIGINATOR     = 

OBJECT_NAME    = SL-16 R/B
OBJECT_ID      = 2007-029B
CENTER_NAME    = EARTH
REF_FRAME      = TEME
TIME_SYSTEM    = UTC
MEAN_ELEMENT_THEORY = SGP/SGP4

EPOCH          = 2026-01-02T07:51:43.956576
MEAN_MOTION    = 14.14824718
ECCENTRICITY   = .00020594
INCLINATION    = 70.9774
RA_OF_ASC_NODE = 311.8800
ARG_OF_PERICENTER = 270.6685
MEAN_ANOMALY   = 204.8885

EPHEMERIS_TYPE = 0
CLASSIFICATION_TYPE = U
NORAD_CAT_ID   = 31793
ELEMENT_SET_NO = 999
REV_AT_EPOCH   = 95598
BSTAR          = .13071177E-3
MEAN_MOTION_DOT = .204E-5
MEAN_MOTION_DDOT = 0

CCSDS_OMM_VERS = 2.0
CREATION_DATE  = 
ORIGINATOR     = 

OBJECT_NAME    = KORONAS-FOTON
OBJECT_ID      = 2009-003A
CENTER_NAME    = EARTH
REF_FRAME      = TEME
TIME_SYSTEM    = UTC
MEAN_ELEMENT_THEORY = SGP/SGP4

EPOCH          = 2026-01-02T00:12:53.570304
MEAN_MOTION    = 15.41628748
ECCENTRICITY   = .00127431
INCLINATION    = 82.4307
RA_OF_ASC_NODE = 345.0952
ARG_OF_PERICENTER = 45.8160
MEAN_ANOMALY   = 314.4131

EPHEMERIS_TYPE = 0
CLASSIFICATION_TYPE = U
NORAD_CAT_ID   = 33504
ELEMENT_SET_NO = 999
REV_AT_EPOCH   = 93546
BSTAR          = .38185746E-3
MEAN_MOTION_DOT = .16165E-3
MEAN_MOTION_DDOT = 0

CCSDS_OMM_VERS = 2.0
CREATION_DATE  = 
ORIGINATOR     = 

OBJECT_NAME    = CZ-2C R/B
OBJECT_ID      = 2011-030B
CENTER_NAME    = EARTH
REF_FRAME      = TEME
TIME_SYSTEM    = UTC
MEAN_ELEMENT_THEORY = SGP/SGP4

EPOCH          = 2026-01-02T06:47:45.502656
MEAN_MOTION    = 14.80975369
ECCENTRICITY   = .00520467
INCLINATION    = 97.8435
RA_OF_ASC_NODE = 320.9389
ARG_OF_PERICENTER = 205.0663
MEAN_ANOMALY   = 291.6390

EPHEMERIS_TYPE = 0
CLASSIFICATION_TYPE = U
NORAD_CAT_ID   = 37731
ELEMENT_SET_NO = 999
REV_AT_EPOCH   = 78026
BSTAR          = .31657739E-3
MEAN_MOTION_DOT = .2454E-4
MEAN_MOTION_DDOT = 0

CCSDS_OMM_VERS = 2.0
CREATION_DATE  = 
ORIGINATOR     = 

OBJECT_NAME    = H-2A R/B
OBJECT_ID      = 2012-025E
CENTER_NAME    = EARTH
REF_FRAME      = TEME
TIME_SYSTEM    = UTC
MEAN_ELEMENT_THEORY = SGP/SGP4

EPOCH          = 2026-01-01T23:50:16.097568
MEAN_MOTION    = 14.94597263
ECCENTRICITY   = .00450203
INCLINATION    = 98.4625
RA_OF_ASC_NODE = 323.7896
ARG_OF_PERICENTER = 169.0713
MEAN_ANOMALY   = 191.1494

EPHEMERIS_TYPE = 0
CLASSIFICATION_TYPE = U
NORAD_CAT_ID   = 38341
ELEMENT_SET_NO = 999
REV_AT_EPOCH   = 73825
BSTAR          = .4219563E-3
MEAN_MOTION_DOT = .4591E-4
MEAN_MOTION_DDOT = 0

CCSDS_OMM_VERS = 2.0
CREATION_DATE  = 
ORIGINATOR     = 

OBJECT_NAME    = SHIJIAN-16 (SJ-16)
OBJECT_ID      = 2013-057A
CENTER_NAME    = EARTH
REF_FRAME      = TEME
TIME_SYSTEM    = UTC
MEAN_ELEMENT_THEORY = SGP/SGP4

EPOCH          = 2026-01-02T07:43:27.211008
MEAN_MOTION    = 14.92078033
ECCENTRICITY   = .00178947
INCLINATION    = 74.9736
RA_OF_ASC_NODE = 310.7075
ARG_OF_PERICENTER = 272.2442
MEAN_ANOMALY   = 87.6697

EPHEMERIS_TYPE = 0
CLASSIFICATION_TYPE = U
NORAD_CAT_ID   = 39358
ELEMENT_SET_NO = 999
REV_AT_EPOCH   = 66160
BSTAR          = .45619285E-3
MEAN_MOTION_DOT = .4621E-4
MEAN_MOTION_DDOT = 0

